QIANFAN-9               
1 60387U 24140J   25236.92057047  .00000106  00000+0  14470-3 0  9992
2 60387  88.9831 310.6971 0017790 149.6333 210.5852 13.50961773 52500
QIANFAN-10              
1 60388U 24140K   25236.92466789  .00000103  00000+0  14084-3 0  9998
2 60388  88.9839 310.0340 0016746 128.9460 231.3187 13.50963734 52639
QIANFAN-11              
1 60389U 24140L   25236.88758674  .00000096  00000+0  12965-3 0  9998
2 60389  88.9767 310.7063 0015822 148.7512 211.4583 13.50964060 52284
QIANFAN-12              
1 60390U 24140M   25236.90810295  .00000113  00000+0  15658-3 0  9993
2 60390  88.9810 310.6995 0014425 155.5583 204.6256 13.50963922 52412
QIANFAN-13              
1 60391U 24140N   25236.87931905  .00000105  00000+0  14355-3 0  9996
2 60391  88.9822 310.7888 0014158 157.9641 202.2122 13.50963951 52432
QIANFAN-14              
1 60392U 24140P   25236.90394940  .00000118  00000+0  16346-3 0  9999
2 60392  88.9801 310.7074 0017832 159.4346 200.7527 13.50965007 52445
QIANFAN-15              
1 60393U 24140Q   25236.91231647  .00000096  00000+0  12980-3 0  9990
2 60393  88.9824 310.6371 0014030 145.2341 214.9730 13.50968428 52437
QIANFAN-16              
1 60394U 24140R   25236.89994958  .00000108  00000+0  14848-3 0  9998
2 60394  88.9828 310.7551 0015636 162.2549 197.9151 13.50964074 52345
